[{"OBJECT_NAME":"STARLINK-2330","OBJECT_ID":"2021-021Q","EPOCH":"2026-03-10T00:00:02.999808","MEAN_MOTION":15.18160337,"ECCENTRICITY":0.00015757,"INCLINATION":53.1049,"RA_OF_ASC_NODE":214.8621,"ARG_OF_PERICENTER":60.7022,"MEAN_ANOMALY":1.7826,"EPHEMERIS_TYPE":0,"CLASSIFICATION_TYPE":"U","NORAD_CAT_ID":47874,"ELEMENT_SET_NO":999,"REV_AT_EPOCH":579,"BSTAR":0.042995602,"MEAN_MOTION_DOT":0.0096506,"MEAN_MOTION_DDOT":0},{"OBJECT_NAME":"ROADS 2","OBJECT_ID":"2025-135X","EPOCH":"2026-03-09T20:33:50.973408","MEAN_MOTION":15.22472145,"ECCENTRICITY":0.0002782,"INCLINATION":97.4653,"RA_OF_ASC_NODE":185.5116,"ARG_OF_PERICENTER":96.6927,"MEAN_ANOMALY":263.4626,"EPHEMERIS_TYPE":0,"CLASSIFICATION_TYPE":"U","NORAD_CAT_ID":64549,"ELEMENT_SET_NO":999,"REV_AT_EPOCH":3979,"BSTAR":0.00041430645,"MEAN_MOTION_DOT":9.527e-5,"MEAN_MOTION_DDOT":0}]
